<?xml version="1.0" encoding="UTF-8"?>
<ndm xmlns:xsi="http://www.w3.org/2001/XMLSchema-instance" xsi:noNamespaceSchemaLocation="https://sanaregistry.org/r/ndmxml_unqualified/ndmxml-2.0.0-master-2.0.xsd">
<omm id="CCSDS_OMM_VERS" version="2.0">
<header><CREATION_DATE/><ORIGINATOR/></header><body><segment><metadata><OBJECT_NAME>IRIDIUM 7</OBJECT_NAME><OBJECT_ID>1997-020B</OBJECT_ID><CENTER_NAME>EARTH</CENTER_NAME><REF_FRAME>TEME</REF_FRAME><TIME_SYSTEM>UTC</TIME_SYSTEM><MEAN_ELEMENT_THEORY>SGP4</MEAN_ELEMENT_THEORY></metadata><data><meanElements><EPOCH>2024-04-28T22:28:23.936160</EPOCH><MEAN_MOTION>14.35180833</MEAN_MOTION><ECCENTRICITY>.0002385</ECCENTRICITY><INCLINATION>86.3987</INCLINATION><RA_OF_ASC_NODE>350.4644</RA_OF_ASC_NODE><ARG_OF_PERICENTER>83.3199</ARG_OF_PERICENTER><MEAN_ANOMALY>276.8268</MEAN_ANOMALY></meanElements><tleParameters><EPHEMERIS_TYPE>0</EPHEMERIS_TYPE><CLASSIFICATION_TYPE>U</CLASSIFICATION_TYPE><NORAD_CAT_ID>24793</NORAD_CAT_ID><ELEMENT_SET_NO>999</ELEMENT_SET_NO><REV_AT_EPOCH>41246</REV_AT_EPOCH><BSTAR>.22129E-3</BSTAR><MEAN_MOTION_DOT>.652E-5</MEAN_MOTION_DOT><MEAN_MOTION_DDOT>0</MEAN_MOTION_DDOT></tleParameters></data></segment></body></omm>
<omm id="CCSDS_OMM_VERS" version="2.0">
<header><CREATION_DATE/><ORIGINATOR/></header><body><segment><metadata><OBJECT_NAME>IRIDIUM 5</OBJECT_NAME><OBJECT_ID>1997-020D</OBJECT_ID><CENTER_NAME>EARTH</CENTER_NAME><REF_FRAME>TEME</REF_FRAME><TIME_SYSTEM>UTC</TIME_SYSTEM><MEAN_ELEMENT_THEORY>SGP4</MEAN_ELEMENT_THEORY></metadata><data><meanElements><EPOCH>2024-04-28T21:49:07.288896</EPOCH><MEAN_MOTION>14.87168042</MEAN_MOTION><ECCENTRICITY>.0123285</ECCENTRICITY><INCLINATION>86.3894</INCLINATION><RA_OF_ASC_NODE>273.5166</RA_OF_ASC_NODE><ARG_OF_PERICENTER>176.5230</ARG_OF_PERICENTER><MEAN_ANOMALY>183.6883</MEAN_ANOMALY></meanElements><tleParameters><EPHEMERIS_TYPE>0</EPHEMERIS_TYPE><CLASSIFICATION_TYPE>U</CLASSIFICATION_TYPE><NORAD_CAT_ID>24795</NORAD_CAT_ID><ELEMENT_SET_NO>999</ELEMENT_SET_NO><REV_AT_EPOCH>42374</REV_AT_EPOCH><BSTAR>.83161E-3</BSTAR><MEAN_MOTION_DOT>.8633E-4</MEAN_MOTION_DOT><MEAN_MOTION_DDOT>0</MEAN_MOTION_DDOT></tleParameters></data></segment></body></omm>
<omm id="CCSDS_OMM_VERS" version="2.0">
<header><CREATION_DATE/><ORIGINATOR/></header><body><segment><metadata><OBJECT_NAME>IRIDIUM 4</OBJECT_NAME><OBJECT_ID>1997-020E</OBJECT_ID><CENTER_NAME>EARTH</CENTER_NAME><REF_FRAME>TEME</REF_FRAME><TIME_SYSTEM>UTC</TIME_SYSTEM><MEAN_ELEMENT_THEORY>SGP4</MEAN_ELEMENT_THEORY></metadata><data><meanElements><EPOCH>2024-04-28T21:43:33.656160</EPOCH><MEAN_MOTION>14.36104085</MEAN_MOTION><ECCENTRICITY>.0002306</ECCENTRICITY><INCLINATION>86.3978</INCLINATION><RA_OF_ASC_NODE>347.6315</RA_OF_ASC_NODE><ARG_OF_PERICENTER>88.7816</ARG_OF_PERICENTER><MEAN_ANOMALY>271.3645</MEAN_ANOMALY></meanElements><tleParameters><EPHEMERIS_TYPE>0</EPHEMERIS_TYPE><CLASSIFICATION_TYPE>U</CLASSIFICATION_TYPE><NORAD_CAT_ID>24796</NORAD_CAT_ID><ELEMENT_SET_NO>999</ELEMENT_SET_NO><REV_AT_EPOCH>41299</REV_AT_EPOCH><BSTAR>.23534E-3</BSTAR><MEAN_MOTION_DOT>.704E-5</MEAN_MOTION_DOT><MEAN_MOTION_DDOT>0</MEAN_MOTION_DDOT></tleParameters></data></segment></body></omm>
<omm id="CCSDS_OMM_VERS" version="2.0">
<header><CREATION_DATE/><ORIGINATOR/></header><body><segment><metadata><OBJECT_NAME>IRIDIUM 914</OBJECT_NAME><OBJECT_ID>1997-030A</OBJECT_ID><CENTER_NAME>EARTH</CENTER_NAME><REF_FRAME>TEME</REF_FRAME><TIME_SYSTEM>UTC</TIME_SYSTEM><MEAN_ELEMENT_THEORY>SGP4</MEAN_ELEMENT_THEORY></metadata><data><meanElements><EPOCH>2024-04-28T22:17:27.847392</EPOCH><MEAN_MOTION>14.39955084</MEAN_MOTION><ECCENTRICITY>.000346</ECCENTRICITY><INCLINATION>86.3970</INCLINATION><RA_OF_ASC_NODE>357.4365</RA_OF_ASC_NODE><ARG_OF_PERICENTER>113.7836</ARG_OF_PERICENTER><MEAN_ANOMALY>246.3726</MEAN_ANOMALY></meanElements><tleParameters><EPHEMERIS_TYPE>0</EPHEMERIS_TYPE><CLASSIFICATION_TYPE>U</CLASSIFICATION_TYPE><NORAD_CAT_ID>24836</NORAD_CAT_ID><ELEMENT_SET_NO>999</ELEMENT_SET_NO><REV_AT_EPOCH>54749</REV_AT_EPOCH><BSTAR>.25481E-3</BSTAR><MEAN_MOTION_DOT>.821E-5</MEAN_MOTION_DOT><MEAN_MOTION_DDOT>0</MEAN_MOTION_DDOT></tleParameters></data></segment></body></omm>
<omm id="CCSDS_OMM_VERS" version="2.0">
<header><CREATION_DATE/><ORIGINATOR/></header><body><segment><metadata><OBJECT_NAME>IRIDIUM 16</OBJECT_NAME><OBJECT_ID>1997-030F</OBJECT_ID><CENTER_NAME>EARTH</CENTER_NAME><REF_FRAME>TEME</REF_FRAME><TIME_SYSTEM>UTC</TIME_SYSTEM><MEAN_ELEMENT_THEORY>SGP4</MEAN_ELEMENT_THEORY></metadata><data><meanElements><EPOCH>2024-04-28T23:19:17.426208</EPOCH><MEAN_MOTION>14.37849113</MEAN_MOTION><ECCENTRICITY>.0002792</ECCENTRICITY><INCLINATION>86.4083</INCLINATION><RA_OF_ASC_NODE>19.2558</RA_OF_ASC_NODE><ARG_OF_PERICENTER>37.9714</ARG_OF_PERICENTER><MEAN_ANOMALY>322.1680</MEAN_ANOMALY></meanElements><tleParameters><EPHEMERIS_TYPE>0</EPHEMERIS_TYPE><CLASSIFICATION_TYPE>U</CLASSIFICATION_TYPE><NORAD_CAT_ID>24841</NORAD_CAT_ID><ELEMENT_SET_NO>999</ELEMENT_SET_NO><REV_AT_EPOCH>40746</REV_AT_EPOCH><BSTAR>.27949E-3</BSTAR><MEAN_MOTION_DOT>.862E-5</MEAN_MOTION_DOT><MEAN_MOTION_DDOT>0</MEAN_MOTION_DDOT></tleParameters></data></segment></body></omm>
<omm id="CCSDS_OMM_VERS" version="2.0">
<header><CREATION_DATE/><ORIGINATOR/></header><body><segment><metadata><OBJECT_NAME>IRIDIUM 911</OBJECT_NAME><OBJECT_ID>1997-030G</OBJECT_ID><CENTER_NAME>EARTH</CENTER_NAME><REF_FRAME>TEME</REF_FRAME><TIME_SYSTEM>UTC</TIME_SYSTEM><MEAN_ELEMENT_THEORY>SGP4</MEAN_ELEMENT_THEORY></metadata><data><meanElements><EPOCH>2024-04-28T18:39:10.191456</EPOCH><MEAN_MOTION>14.46470060</MEAN_MOTION><ECCENTRICITY>.0015974</ECCENTRICITY><INCLINATION>86.4508</INCLINATION><RA_OF_ASC_NODE>18.5065</RA_OF_ASC_NODE><ARG_OF_PERICENTER>45.1862</ARG_OF_PERICENTER><MEAN_ANOMALY>315.0636</MEAN_ANOMALY></meanElements><tleParameters><EPHEMERIS_TYPE>0</EPHEMERIS_TYPE><CLASSIFICATION_TYPE>U</CLASSIFICATION_TYPE><NORAD_CAT_ID>24842</NORAD_CAT_ID><ELEMENT_SET_NO>999</ELEMENT_SET_NO><REV_AT_EPOCH>41515</REV_AT_EPOCH><BSTAR>.33668E-3</BSTAR><MEAN_MOTION_DOT>.1232E-4</MEAN_MOTION_DOT><MEAN_MOTION_DDOT>0</MEAN_MOTION_DDOT></tleParameters></data></segment></body></omm>
<omm id="CCSDS_OMM_VERS" version="2.0">
<header><CREATION_DATE/><ORIGINATOR/></header><body><segment><metadata><OBJECT_NAME>IRIDIUM 17</OBJECT_NAME><OBJECT_ID>1997-034B</OBJECT_ID><CENTER_NAME>EARTH</CENTER_NAME><REF_FRAME>TEME</REF_FRAME><TIME_SYSTEM>UTC</TIME_SYSTEM><MEAN_ELEMENT_THEORY>SGP4</MEAN_ELEMENT_THEORY></metadata><data><meanElements><EPOCH>2024-04-28T20:09:54.741888</EPOCH><MEAN_MOTION>14.36939616</MEAN_MOTION><ECCENTRICITY>.0001036</ECCENTRICITY><INCLINATION>86.3984</INCLINATION><RA_OF_ASC_NODE>48.9098</RA_OF_ASC_NODE><ARG_OF_PERICENTER>45.5244</ARG_OF_PERICENTER><MEAN_ANOMALY>314.6037</MEAN_ANOMALY></meanElements><tleParameters><EPHEMERIS_TYPE>0</EPHEMERIS_TYPE><CLASSIFICATION_TYPE>U</CLASSIFICATION_TYPE><NORAD_CAT_ID>24870</NORAD_CAT_ID><ELEMENT_SET_NO>999</ELEMENT_SET_NO><REV_AT_EPOCH>40406</REV_AT_EPOCH><BSTAR>.34954E-3</BSTAR><MEAN_MOTION_DOT>.1054E-4</MEAN_MOTION_DOT><MEAN_MOTION_DDOT>0</MEAN_MOTION_DDOT></tleParameters></data></segment></body></omm>
<omm id="CCSDS_OMM_VERS" version="2.0">
<header><CREATION_DATE/><ORIGINATOR/></header><body><segment><metadata><OBJECT_NAME>IRIDIUM 920</OBJECT_NAME><OBJECT_ID>1997-034C</OBJECT_ID><CENTER_NAME>EARTH</CENTER_NAME><REF_FRAME>TEME</REF_FRAME><TIME_SYSTEM>UTC</TIME_SYSTEM><MEAN_ELEMENT_THEORY>SGP4</MEAN_ELEMENT_THEORY></metadata><data><meanElements><EPOCH>2024-04-28T20:05:36.067200</EPOCH><MEAN_MOTION>14.40661686</MEAN_MOTION><ECCENTRICITY>.001228</ECCENTRICITY><INCLINATION>86.4020</INCLINATION><RA_OF_ASC_NODE>29.1100</RA_OF_ASC_NODE><ARG_OF_PERICENTER>19.1888</ARG_OF_PERICENTER><MEAN_ANOMALY>340.9771</MEAN_ANOMALY></meanElements><tleParameters><EPHEMERIS_TYPE>0</EPHEMERIS_TYPE><CLASSIFICATION_TYPE>U</CLASSIFICATION_TYPE><NORAD_CAT_ID>24871</NORAD_CAT_ID><ELEMENT_SET_NO>999</ELEMENT_SET_NO><REV_AT_EPOCH>40690</REV_AT_EPOCH><BSTAR>.28834E-3</BSTAR><MEAN_MOTION_DOT>.94E-5</MEAN_MOTION_DOT><MEAN_MOTION_DDOT>0</MEAN_MOTION_DDOT></tleParameters></data></segment></body></omm>

</ndm>
