IRIDIUM 7               
1 24793U 97020B   24119.93638815  .00000652  00000+0  22129-3 0  9994
2 24793  86.3987 350.4644 0002385  83.3199 276.8268 14.35180833412467
IRIDIUM 5               
1 24795U 97020D   24119.90911214  .00008633  00000+0  83161-3 0  9990
2 24795  86.3894 273.5166 0123285 176.5230 183.6883 14.87168042423740
IRIDIUM 4               
1 24796U 97020E   24119.90525065  .00000704  00000+0  23534-3 0  9995
2 24796  86.3978 347.6315 0002306  88.7816 271.3645 14.36104085412994
IRIDIUM 914             
1 24836U 97030A   24119.92879453  .00000821  00000+0  25481-3 0  9999
2 24836  86.3970 357.4365 0003460 113.7836 246.3726 14.39955084547490
IRIDIUM 16              
1 24841U 97030F   24119.97172947  .00000862  00000+0  27949-3 0  9990
2 24841  86.4083  19.2558 0002792  37.9714 322.1680 14.37849113407465
IRIDIUM 911             
1 24842U 97030G   24119.77720129  .00001232  00000+0  33668-3 0  9997
2 24842  86.4508  18.5065 0015974  45.1862 315.0636 14.46470060415152
IRIDIUM 17              
1 24870U 97034B   24119.84021692  .00001054  00000+0  34954-3 0  9990
2 24870  86.3984  48.9098 0001036  45.5244 314.6037 14.36939616404069
IRIDIUM 920             
1 24871U 97034C   24119.83722300  .00000940  00000+0  28834-3 0  9997
2 24871  86.4020  29.1100 0012280  19.1888 340.9771 14.40661686406907
